STARLINK-1506           
1 45747U 20038T   26068.66028804  .00025380  00000+0  97997-3 0  9997
2 45747  53.0733 202.5028 0002514 227.7836 132.2949 15.26134655316688
STARLINK-31554          
1 59195U 24045T   26068.45706740 -.00001011  00000+0 -27212-4 0  9991
2 59195  43.0054  94.0421 0001472 276.0564  84.0120 15.27573123113120
